NESS                    
1 58020U 23155E   26068.76452457  .00019469  00000+0  74047-3 0  9996
2 58020  97.5941 152.6141 0006891 179.8776 180.2465 15.26794015133307
STARLINK-32486          
1 61854U 24202K   26068.51577777 -.00018143  00000+0 -64994-3 0  9995
2 61854  43.0127 238.7574 0001952 268.3052  91.7576 15.27650668 75319
